[{"OBJECT_NAME":"STARLINK-5383","OBJECT_ID":"2022-177H","EPOCH":"2026-03-09T05:03:48.190752","MEAN_MOTION":15.02531322,"ECCENTRICITY":0.00012188,"INCLINATION":43.0016,"RA_OF_ASC_NODE":135.8997,"ARG_OF_PERICENTER":263.6559,"MEAN_ANOMALY":96.4144,"EPHEMERIS_TYPE":0,"CLASSIFICATION_TYPE":"U","NORAD_CAT_ID":54827,"ELEMENT_SET_NO":999,"REV_AT_EPOCH":17689,"BSTAR":-3.668191e-6,"MEAN_MOTION_DOT":-2.53e-6,"MEAN_MOTION_DDOT":0},{"OBJECT_NAME":"COSMOS 2251 DEB","OBJECT_ID":"1993-036BRU","EPOCH":"2026-02-21T14:09:45.153216","MEAN_MOTION":14.99001579,"ECCENTRICITY":0.0017259,"INCLINATION":74.0061,"RA_OF_ASC_NODE":146.9269,"ARG_OF_PERICENTER":277.3195,"MEAN_ANOMALY":147.2685,"EPHEMERIS_TYPE":0,"CLASSIFICATION_TYPE":"U","NORAD_CAT_ID":38062,"ELEMENT_SET_NO":999,"REV_AT_EPOCH":64090,"BSTAR":0.0019091,"MEAN_MOTION_DOT":0.00023247,"MEAN_MOTION_DDOT":0}]
